{"type": "FeatureCollection", "features": [ {"type": "Feature", "properties": {"norad_id": 42987, "name": "SKYSAT-C11", "group": "resource", "lat": 36.28462213657217, "lon": 126.04640720352877, "alt_km": 420.52077992460363, "timestamp": "2025-12-19T20:42:59.738690+00:00", "meta": {"OBJECT_NAME": "SKYSAT-C11", "OBJECT_ID": "2017-068A", "EPOCH": "2025-12-18T22:50:06.811872", "MEAN_MOTION": 15.47702114, "ECCENTRICITY": 0.00011532, "INCLINATION": 97.4142, "RA_OF_ASC_NODE": 130.598, "ARG_OF_PERICENTER": 99.6739, "MEAN_ANOMALY": 260.4642, "EPHEMERIS_TYPE": 0, "CLASSIFICATION_TYPE": "U", "NORAD_CAT_ID": 42987, "ELEMENT_SET_NO": 999, "REV_AT_EPOCH": 45527, "BSTAR": 0.00036065159, "MEAN_MOTION_DOT": 0.00018579, "MEAN_MOTION_DDOT": 0}, "tle": {"line1": "1 42987U 17068A   25352.95146773  .00018579  00000+0  36065-3 0  9993", "line2": "2 42987  97.4142 130.5980 0001153  99.6739 260.4642 15.47702114455277"}}, "geometry": {"type": "Point", "coordinates": [126.04640720352877, 36.28462213657217]}}, {"type": "Feature", "properties": {"norad_id": 42988, "name": "SKYSAT-C10", "group": "resource", "lat": 78.6474764476945, "lon": 84.21939631452975, "alt_km": 458.1760583250061, "timestamp": "2025-12-19T20:42:59.738701+00:00", "meta": {"OBJECT_NAME": "SKYSAT-C10", "OBJECT_ID": "2017-068B", "EPOCH": "2025-12-18T22:25:10.285248", "MEAN_MOTION": 15.32190604, "ECCENTRICITY": 0.00054557, "INCLINATION": 97.426, "RA_OF_ASC_NODE": 123.8024, "ARG_OF_PERICENTER": 86.4338, "MEAN_ANOMALY": 273.7528, "EPHEMERIS_TYPE": 0, "CLASSIFICATION_TYPE": "U", "NORAD_CAT_ID": 42988, "ELEMENT_SET_NO": 999, "REV_AT_EPOCH": 45474, "BSTAR": 0.00029573083, "MEAN_MOTION_DOT": 9.118e-05, "MEAN_MOTION_DDOT": 0}, "tle": {"line1": "1 42988U 17068B   25352.93414682  .00009118  00000+0  29573-3 0  9994", "line2": "2 42988  97.4260 123.8024 0005455  86.4338 273.7528 15.32190604454741"}}, "geometry": {"type": "Point", "coordinates": [84.21939631452975, 78.6474764476945]}}, {"type": "Feature", "properties": {"norad_id": 42989, "name": "SKYSAT-C9", "group": "resource", "lat": 30.981530122356855, "lon": 119.68606657221581, "alt_km": 449.6683229136279, "timestamp": "2025-12-19T20:42:59.738712+00:00", "meta": {"OBJECT_NAME": "SKYSAT-C9", "OBJECT_ID": "2017-068C", "EPOCH": "2025-12-18T22:41:41.803008", "MEAN_MOTION": 15.36203039, "ECCENTRICITY": 0.0010548, "INCLINATION": 97.4193, "RA_OF_ASC_NODE": 123.2487, "ARG_OF_PERICENTER": 67.9248, "MEAN_ANOMALY": 292.3115, "EPHEMERIS_TYPE": 0, "CLASSIFICATION_TYPE": "U", "NORAD_CAT_ID": 42989, "ELEMENT_SET_NO": 999, "REV_AT_EPOCH": 45503, "BSTAR": 0.00029759929, "MEAN_MOTION_DOT": 0.00010438, "MEAN_MOTION_DDOT": 0}, "tle": {"line1": "1 42989U 17068C   25352.94562272  .00010438  00000+0  29760-3 0  9990", "line2": "2 42989  97.4193 123.2487 0010548  67.9248 292.3115 15.36203039455030"}}, "geometry": {"type": "Point", "coordinates": [119.68606657221581, 30.981530122356855]}}, {"type": "Feature", "properties": {"norad_id": 42990, "name": "SKYSAT-C8", "group": "resource", "lat": -76.09564460566008, "lon": 155.69970665280786, "alt_km": 473.3109320971844, "timestamp": "2025-12-19T20:42:59.738722+00:00", "meta": {"OBJECT_NAME": "SKYSAT-C8", "OBJECT_ID": "2017-068D", "EPOCH": "2025-12-18T19:59:35.453472", "MEAN_MOTION": 15.33051371, "ECCENTRICITY": 0.00011703, "INCLINATION": 97.4282, "RA_OF_ASC_NODE": 122.8599, "ARG_OF_PERICENTER": 316.3061, "MEAN_ANOMALY": 43.8088, "EPHEMERIS_TYPE": 0, "CLASSIFICATION_TYPE": "U", "NORAD_CAT_ID": 42990, "ELEMENT_SET_NO": 999, "REV_AT_EPOCH": 45464, "BSTAR": 0.00030081895, "MEAN_MOTION_DOT": 9.527e-05, "MEAN_MOTION_DDOT": 0}, "tle": {"line1": "1 42990U 17068D   25352.83304923  .00009527  00000+0  30082-3 0  9993", "line2": "2 42990  97.4282 122.8599 0001170 316.3061  43.8088 15.33051371454646"}}, "geometry": {"type": "Point", "coordinates": [155.69970665280786, -76.09564460566008]}}, {"type": "Feature", "properties": {"norad_id": 42991, "name": "SKYSAT-C7", "group": "resource", "lat": 57.152166194074205, "lon": -43.41029015545177, "alt_km": 462.7512822615563, "timestamp": "2025-12-19T20:42:59.738735+00:00", "meta": {"OBJECT_NAME": "SKYSAT-C7", "OBJECT_ID": "2017-068E", "EPOCH": "2025-12-18T22:14:48.659712", "MEAN_MOTION": 15.32453251, "ECCENTRICITY": 0.00072381, "INCLINATION": 97.429, "RA_OF_ASC_NODE": 123.9903, "ARG_OF_PERICENTER": 38.2093, "MEAN_ANOMALY": 321.9661, "EPHEMERIS_TYPE": 0, "CLASSIFICATION_TYPE": "U", "NORAD_CAT_ID": 42991, "ELEMENT_SET_NO": 999, "REV_AT_EPOCH": 45472, "BSTAR": 0.00029204968, "MEAN_MOTION_DOT": 9.081e-05, "MEAN_MOTION_DDOT": 0}, "tle": {"line1": "1 42991U 17068E   25352.92695208  .00009081  00000+0  29205-3 0  9993", "line2": "2 42991  97.4290 123.9903 0007238  38.2093 321.9661 15.32453251454721"}}, "geometry": {"type": "Point", "coordinates": [-43.41029015545177, 57.152166194074205]}}, {"type": "Feature", "properties": {"norad_id": 42992, "name": "SKYSAT-C6", "group": "resource", "lat": -37.1351608120896, "lon": -60.31053431983083, "alt_km": 480.53008092533037, "timestamp": "2025-12-19T20:42:59.738746+00:00", "meta": {"OBJECT_NAME": "SKYSAT-C6", "OBJECT_ID": "2017-068F", "EPOCH": "2025-12-18T20:15:03.221856", "MEAN_MOTION": 15.31610998, "ECCENTRICITY": 0.00050359, "INCLINATION": 97.4323, "RA_OF_ASC_NODE": 124.3405, "ARG_OF_PERICENTER": 66.0941, "MEAN_ANOMALY": 294.0827, "EPHEMERIS_TYPE": 0, "CLASSIFICATION_TYPE": "U", "NORAD_CAT_ID": 42992, "ELEMENT_SET_NO": 999, "REV_AT_EPOCH": 45469, "BSTAR": 0.00029301506, "MEAN_MOTION_DOT": 8.87e-05, "MEAN_MOTION_DDOT": 0}, "tle": {"line1": "1 42992U 17068F   25352.84378729  .00008870  00000+0  29302-3 0  9994", "line2": "2 42992  97.4323 124.3405 0005035  66.0941 294.0827 15.31610998454697"}}, "geometry": {"type": "Point", "coordinates": [-60.31053431983083, -37.1351608120896]}}, {"type": "Feature", "properties": {"norad_id": 43111, "name": "CARTOSAT-2F", "group": "resource", "lat": 9.083713658039908, "lon": 50.19072110688834, "alt_km": 510.2911637652551, "timestamp": "2025-12-19T20:42:59.738756+00:00", "meta": {"OBJECT_NAME": "CARTOSAT-2F", "OBJECT_ID": "2018-004A", "EPOCH": "2025-12-19T08:01:47.837280", "MEAN_MOTION": 15.19183546, "ECCENTRICITY": 0.000146, "INCLINATION": 97.4315, "RA_OF_ASC_NODE": 50.8665, "ARG_OF_PERICENTER": 110.6627, "MEAN_ANOMALY": 249.4764, "EPHEMERIS_TYPE": 0, "CLASSIFICATION_TYPE": "U", "NORAD_CAT_ID": 43111, "ELEMENT_SET_NO": 999, "REV_AT_EPOCH": 44002, "BSTAR": 0.00015131259, "MEAN_MOTION_DOT": 3.115e-05, "MEAN_MOTION_DDOT": 0}, "tle": {"line1": "1 43111U 18004A   25353.33458145  .00003115  00000+0  15131-3 0  9997", "line2": "2 43111  97.4315  50.8665 0001460 110.6627 249.4764 15.19183546440024"}}, "geometry": {"type": "Point", "coordinates": [50.19072110688834, 9.083713658039908]}}, {"type": "Feature", "properties": {"norad_id": 43259, "name": "GAOFEN-1 02", "group": "resource", "lat": 60.31640466973408, "lon": -113.9123213964412, "alt_km": 634.2796512417963, "timestamp": "2025-12-19T20:42:59.738778+00:00", "meta": {"OBJECT_NAME": "GAOFEN-1 02", "OBJECT_ID": "2018-031A", "EPOCH": "2025-12-19T07:10:08.109408", "MEAN_MOTION": 14.7642813, "ECCENTRICITY": 0.00021825, "INCLINATION": 98.0803, "RA_OF_ASC_NODE": 51.0909, "ARG_OF_PERICENTER": 191.8884, "MEAN_ANOMALY": 168.2274, "EPHEMERIS_TYPE": 0, "CLASSIFICATION_TYPE": "U", "NORAD_CAT_ID": 43259, "ELEMENT_SET_NO": 999, "REV_AT_EPOCH": 41615, "BSTAR": 8.6493438e-05, "MEAN_MOTION_DOT": 5.49e-06, "MEAN_MOTION_DDOT": 0}, "tle": {"line1": "1 43259U 18031A   25353.29870497  .00000549  00000+0  86493-4 0  9991", "line2": "2 43259  98.0803  51.0909 0002182 191.8884 168.2274 14.76428130416152"}}, "geometry": {"type": "Point", "coordinates": [-113.9123213964412, 60.31640466973408]}}, {"type": "Feature", "properties": {"norad_id": 43260, "name": "GAOFEN-1 03", "group": "resource", "lat": -53.62965847040849, "lon": -139.58930681527735, "alt_km": 646.8126911265854, "timestamp": "2025-12-19T20:42:59.738791+00:00", "meta": {"OBJECT_NAME": "GAOFEN-1 03", "OBJECT_ID": "2018-031B", "EPOCH": "2025-12-19T06:38:46.276800", "MEAN_MOTION": 14.76449586, "ECCENTRICITY": 0.0001725, "INCLINATION": 98.079, "RA_OF_ASC_NODE": 50.9447, "ARG_OF_PERICENTER": 288.2692, "MEAN_ANOMALY": 71.8329, "EPHEMERIS_TYPE": 0, "CLASSIFICATION_TYPE": "U", "NORAD_CAT_ID": 43260, "ELEMENT_SET_NO": 999, "REV_AT_EPOCH": 41614, "BSTAR": 0.00010246978, "MEAN_MOTION_DOT": 6.61e-06, "MEAN_MOTION_DDOT": 0}, "tle": {"line1": "1 43260U 18031B   25353.27692450  .00000661  00000+0  10247-3 0  9990", "line2": "2 43260  98.0790  50.9447 0001725 288.2692  71.8329 14.76449586416141"}}, "geometry": {"type": "Point", "coordinates": [-139.58930681527735, -53.62965847040849]}}, {"type": "Feature", "properties": {"norad_id": 43262, "name": "GAOFEN-1 04", "group": "resource", "lat": 3.766695800704153, "lon": 51.166032339741136, "alt_km": 642.7770232410785, "timestamp": "2025-12-19T20:42:59.738802+00:00", "meta": {"OBJECT_NAME": "GAOFEN-1 04", "OBJECT_ID": "2018-031D", "EPOCH": "2025-12-19T07:41:13.604640", "MEAN_MOTION": 14.76418559, "ECCENTRICITY": 7.537e-05, "INCLINATION": 98.0805, "RA_OF_ASC_NODE": 51.1589, "ARG_OF_PERICENTER": 49.9273, "MEAN_ANOMALY": 310.2003, "EPHEMERIS_TYPE": 0, "CLASSIFICATION_TYPE": "U", "NORAD_CAT_ID": 43262, "ELEMENT_SET_NO": 999, "REV_AT_EPOCH": 41614, "BSTAR": 9.6712131e-05, "MEAN_MOTION_DOT": 6.2e-06, "MEAN_MOTION_DDOT": 0}, "tle": {"line1": "1 43262U 18031D   25353.32029635  .00000620  00000+0  96712-4 0  9994", "line2": "2 43262  98.0805  51.1589 0000753  49.9273 310.2003 14.76418559416142"}}, "geometry": {"type": "Point", "coordinates": [51.166032339741136, 3.766695800704153]}}]}